NORAD_CAT_ID,OBJECT_NAME,OBJECT_TYPE,EPOCH,MEAN_MOTION,ECCENTRICITY,INCLINATION,RA_OF_ASC_NODE,ARG_OF_PERICENTER,MEAN_ANOMALY,BSTAR,MEAN_MOTION_DOT,MEAN_MOTION_DDOT,TLE_LINE0,TLE_LINE1,TLE_LINE2,SEMIMAJOR_AXIS,PERIOD,APOGEE,PERIGEE,DECAYED
53596.0,STARLINK-4668,PAYLOAD,2023-04-15 21:22:26,15.08854712,9.07e-05,53.2166,317.1494,89.3651,270.7445,0.00036316,5.499e-05,0.0,0 STARLINK-4668,1 53596U 22104J   23105.89058626  .00005499  00000-0  36316-3 0  9991,2 53596  53.2166 317.1494 0000907  89.3651 270.7445 15.08854712 35086,6917.835,95.437,540.328,539.073,0.0
53596.0,STARLINK-4668,PAYLOAD,2023-04-16 13:16:18,15.08843229,0.0001058,53.2161,314.1755,92.8597,267.2516,0.00018055,2.587e-05,0.0,0 STARLINK-4668,1 53596U 22104J   23106.55299125  .00002587  00000-0  18055-3 0  9991,2 53596  53.2161 314.1755 0001058  92.8597 267.2516 15.08843229 35186,6917.871,95.437,540.467,539.004,0.0
53596.0,STARLINK-4668,PAYLOAD,2023-04-16 21:13:14,15.08842009,9.97e-05,53.2163,312.6886,89.2315,270.8791,0.00014181,1.97e-05,0.0,0 STARLINK-4668,1 53596U 22104J   23106.88419205  .00001970  00000-0  14181-3 0  9991,2 53596  53.2163 312.6886 0000997  89.2315 270.8791 15.08842009 35927,6917.874,95.437,540.429,539.05,0.0
53596.0,STARLINK-4668,PAYLOAD,2023-04-17 13:07:05,15.08835516,0.0001077,53.216,309.7153,78.2167,281.8946,3.1718e-05,2.17e-06,0.0,0 STARLINK-4668,1 53596U 22104J   23107.54659699  .00000217  00000-0  31718-4 0  9997,2 53596  53.2160 309.7153 0001077  78.2167 281.8946 15.08835516 35335,6917.894,95.438,540.504,539.014,0.0
53596.0,STARLINK-4668,PAYLOAD,2023-04-17 21:04:01,15.08840826,0.0001064,53.2157,308.2283,87.5358,272.5756,9.5126e-05,1.226e-05,0.0,0 STARLINK-4668,1 53596U 22104J   23107.87779471  .00001226  00000-0  95126-4 0  9998,2 53596  53.2157 308.2283 0001064  87.5358 272.5756 15.08840826 36078,6917.878,95.438,540.479,539.007,0.0
53596.0,STARLINK-4668,PAYLOAD,2023-04-17 22:39:24,15.08844086,0.0001024,53.2156,307.9301,85.9917,274.1192,0.00019468,2.812e-05,0.0,0 STARLINK-4668,1 53596U 22104J   23107.94403478  .00002812  00000-0  19468-3 0  9993,2 53596  53.2156 307.9301 0001024  85.9917 274.1192 15.08844086 36088,6917.868,95.437,540.441,539.025,0.0
53596.0,STARLINK-4668,PAYLOAD,2023-04-18 19:19:25,15.08850556,0.0001062,53.2145,304.0645,78.1264,281.9847,0.0003856,5.856e-05,0.0,0 STARLINK-4668,1 53596U 22104J   23108.80515404  .00005856  00000-0  38560-3 0  9997,2 53596  53.2145 304.0645 0001062  78.1264 281.9847 15.08850556 35526,6917.848,95.437,540.448,538.978,0.0
53596.0,STARLINK-4668,PAYLOAD,2023-04-19 12:48:39,15.08847296,0.0001022,53.2142,300.7934,88.8313,271.2796,0.00023286,3.421e-05,0.0,0 STARLINK-4668,1 53596U 22104J   23109.53379385  .00003421  00000-0  23286-3 0  9999,2 53596  53.2142 300.7934 0001022  88.8313 271.2796 15.08847296 35630,6917.858,95.437,540.43,539.016,0.0
53596.0,STARLINK-4668,PAYLOAD,2023-04-19 17:34:49,15.08851568,0.0001047,53.2145,299.9015,86.8825,273.2287,0.00030799,4.619e-05,0.0,0 STARLINK-4668,1 53596U 22104J   23109.73251211  .00004619  00000-0  30799-3 0  9995,2 53596  53.2145 299.9015 0001047  86.8825 273.2287 15.08851568 36359,6917.845,95.437,540.434,538.986,0.0
53596.0,STARLINK-4668,PAYLOAD,2023-04-20 11:04:03,15.08840844,0.0001267,53.2136,296.63,81.2506,278.8629,4.098e-05,3.64e-06,0.0,0 STARLINK-4668,1 53596U 22104J   23110.46115358  .00000364  00000-0  40980-4 0  9995,2 53596  53.2136 296.6300 0001267  81.2506 278.8629 15.08840844 36467,6917.878,95.438,540.619,538.866,0.0
53596.0,STARLINK-4668,PAYLOAD,2023-04-20 15:50:12,15.0884227,0.0001628,53.2146,295.7355,119.301,240.8145,1.5861e-05,-3.6e-07,0.0,0 STARLINK-4668,1 53596U 22104J   23110.65987145 -.00000036  00000-0  15861-4 0  9994,2 53596  53.2146 295.7355 0001628 119.3010 240.8145 15.08842270 36492,6917.873,95.437,540.865,538.612,0.0
53596.0,STARLINK-4668,PAYLOAD,2023-04-20 22:11:45,15.08845109,0.0001107,53.2157,294.5479,93.697,266.4149,0.0001065,1.408e-05,0.0,0 STARLINK-4668,1 53596U 22104J   23110.92483166  .00001408  00000-0  10650-3 0  9991,2 53596  53.2157 294.5479 0001107  93.6970 266.4149 15.08845109 36536,6917.865,95.437,540.496,538.964,0.0
53596.0,STARLINK-4668,PAYLOAD,2023-04-21 18:51:46,15.08841132,0.0001229,53.2164,290.6854,93.1817,266.9316,0.00010457,1.377e-05,0.0,0 STARLINK-4668,1 53596U 22104J   23111.78595542  .00001377  00000-0  10457-3 0  9998,2 53596  53.2164 290.6854 0001229  93.1817 266.9316 15.08841132 35978,6917.877,95.437,540.592,538.892,0.0
53596.0,STARLINK-4668,PAYLOAD,2023-04-22 12:21:01,15.08841211,0.0001074,53.2146,287.4112,80.7986,279.3128,0.00015008,2.102e-05,0.0,0 STARLINK-4668,1 53596U 22104J   23112.51459591  .00002102  00000-0  15008-3 0  9997,2 53596  53.2146 287.4112 0001074  80.7986 279.3128 15.08841211 36772,6917.877,95.437,540.485,538.999,0.0
53596.0,STARLINK-4668,PAYLOAD,2023-04-22 18:42:33,15.08844296,0.0001128,53.2143,286.2216,79.5146,280.5973,0.00016875,2.399e-05,0.0,0 STARLINK-4668,1 53596U 22104J   23112.77955411  .00002399  00000-0  16875-3 0  9998,2 53596  53.2143 286.2216 0001128  79.5146 280.5973 15.08844296 36818,6917.867,95.437,540.513,538.952,0.0
53596.0,STARLINK-4668,PAYLOAD,2023-04-23 04:14:52,15.08837877,9.17e-05,53.2146,284.4385,80.7426,279.367,2.4132e-05,9.6e-07,0.0,0 STARLINK-4668,1 53596U 22104J   23113.17699615  .00000096  00000-0  24132-4 0  9992,2 53596  53.2146 284.4385 0000917  80.7426 279.3670 15.08837877 36185,6917.887,95.438,540.386,539.118,0.0
53596.0,STARLINK-4668,PAYLOAD,2023-04-23 12:11:48,15.08833523,0.0001311,53.2161,282.9515,88.2493,271.8649,-4.4802e-05,-1.001e-05,0.0,0 STARLINK-4668,1 53596U 22104J   23113.50820198 -.00001001  00000-0 -44802-4 0  9996,2 53596  53.2161 282.9515 0001311  88.2493 271.8649 15.08833523 36925,6917.9,95.438,540.672,538.858,0.0
53596.0,STARLINK-4668,PAYLOAD,2023-04-24 10:27:11,15.0887021,0.0001248,53.2167,278.7879,86.5359,273.5776,0.00053021,8.167e-05,0.0,0 STARLINK-4668,1 53596U 22104J   23114.43554573  .00008167  00000-0  53021-3 0  9990,2 53596  53.2167 278.7879 0001248  86.5359 273.5776 15.08870210 37068,6917.788,95.436,540.516,538.79,0.0
53596.0,STARLINK-4668,PAYLOAD,2023-04-25 10:17:58,15.08832151,0.0001292,53.2147,274.3254,98.8082,261.3056,-0.00047186,-7.788e-05,0.0,0 STARLINK-4668,1 53596U 22104J   23115.42914552 -.00007788  00000-0 -47186-3 0  9992,2 53596  53.2147 274.3254 0001292  98.8082 261.3056 15.08832151 36521,6917.904,95.438,540.663,538.876,0.0
53596.0,STARLINK-4668,PAYLOAD,2023-04-25 13:28:44,15.08833258,0.000128,53.2144,273.7311,101.4627,258.6508,-0.00031522,-5.3e-05,0.0,0 STARLINK-4668,1 53596U 22104J   23115.56162768 -.00005300  00000-0 -31522-3 0  9996,2 53596  53.2144 273.7311 0001280 101.4627 258.6508 15.08833258 37237,6917.901,95.438,540.651,538.881,0.0
53596.0,STARLINK-4668,PAYLOAD,2023-04-26 13:19:30,15.08850826,3.41e-05,53.2169,269.2689,73.2506,286.8524,0.00012944,1.774e-05,0.0,0 STARLINK-4668,1 53596U 22104J   23116.55521626  .00001774  00000-0  12944-3 0  9994,2 53596  53.2169 269.2689 0000341  73.2506 286.8524 15.08850826 37388,6917.847,95.437,539.948,539.476,0.0
53596.0,STARLINK-4668,PAYLOAD,2023-04-26 19:41:02,15.08865448,0.0001035,53.2167,268.0825,51.3142,308.7942,0.00031719,4.767e-05,0.0,0 STARLINK-4668,1 53596U 22104J   23116.82017064  .00004767  00000-0  31719-3 0  9996,2 53596  53.2167 268.0825 0001035  51.3142 308.7942 15.08865448 37428,6917.803,95.436,540.384,538.952,0.0
53596.0,STARLINK-4668,PAYLOAD,2023-04-27 13:10:19,15.08821721,0.0001367,53.2152,264.8127,63.6644,296.4488,-0.00021589,-3.72e-05,0.0,0 STARLINK-4668,1 53596U 22104J   23117.54883466 -.00003720  00000-0 -21589-3 0  9997,2 53596  53.2152 264.8127 0001367  63.6644 296.4488 15.08821721 37538,6917.936,95.439,540.747,538.856,0.0
53596.0,STARLINK-4668,PAYLOAD,2023-04-27 19:31:51,15.08826739,0.0001447,53.2161,263.6234,66.5108,293.6036,-7.9597e-05,-1.554e-05,0.0,0 STARLINK-4668,1 53596U 22104J   23117.81379599 -.00001554  00000-0 -79597-4 0  9990,2 53596  53.2161 263.6234 0001447  66.5108 293.6036 15.08826739 36889,6917.921,95.438,540.787,538.785,0.0
53596.0,STARLINK-4668,PAYLOAD,2023-04-28 11:25:43,15.08835647,0.0001241,53.2165,260.6492,73.9287,286.1842,0.00015285,2.145e-05,0.0,0 STARLINK-4668,1 53596U 22104J   23118.47619748  .00002145  00000-0  15285-3 0  9994,2 53596  53.2165 260.6492 0001241  73.9287 286.1842 15.08835647 36989,6917.894,95.438,540.617,538.9,0.0
53596.0,STARLINK-4668,PAYLOAD,2023-04-29 12:51:54,15.08842646,0.0001244,53.2165,255.8916,81.114,278.9993,0.00043215,6.597e-05,0.0,0 STARLINK-4668,1 53596U 22104J   23119.53604289  .00006597  00000-0  43215-3 0  9995,2 53596  53.2165 255.8916 0001244  81.1140 278.9993 15.08842646 37140,6917.872,95.437,540.598,538.877,0.0
53596.0,STARLINK-4668,PAYLOAD,2023-04-29 19:13:26,15.08861254,0.00011,53.2161,254.7023,74.9414,285.1699,0.0010051,0.00015754,0.0,0 STARLINK-4668,1 53596U 22104J   23119.80099847  .00015754  00000-0  10051-2 0  9999,2 53596  53.2161 254.7023 0001100  74.9414 285.1699 15.08861254 37181,6917.815,95.436,540.441,538.919,0.0
53596.0,STARLINK-4668,PAYLOAD,2023-04-30 12:42:40,15.08841299,0.0001019,53.2168,251.4327,95.7084,264.4024,0.0002723,4.049e-05,0.0,0 STARLINK-4668,1 53596U 22104J   23120.52964099  .00004049  00000-0  27230-3 0  9993,2 53596  53.2168 251.4327 0001019  95.7084 264.4024 15.08841299 37989,6917.876,95.437,540.446,539.036,0.0
53596.0,STARLINK-4668,PAYLOAD,2023-04-30 14:18:04,15.08839779,0.0001062,53.2169,251.1361,89.2694,270.842,5.9914e-05,6.66e-06,0.0,0 STARLINK-4668,1 53596U 22104J   23120.59588115  .00000666  00000-0  59914-4 0  9997,2 53596  53.2169 251.1361 0001062  89.2694 270.8420 15.08839779 37305,6917.881,95.438,540.481,539.011,0.0
53596.0,STARLINK-4668,PAYLOAD,2023-05-01 12:33:28,15.08834707,0.0001012,53.2165,246.9712,96.0772,264.0335,2.0598e-05,4e-07,0.0,0 STARLINK-4668,1 53596U 22104J   23121.52324537  .00000040  00000-0  20598-4 0  9999,2 53596  53.2165 246.9712 0001012  96.0772 264.0335 15.08834707 37442,6917.897,95.438,540.462,539.061,0.0
